[{"OBJECT_NAME":"STARLINK-32085","OBJECT_ID":"2024-086D","EPOCH":"2026-03-09T23:05:53.971008","MEAN_MOTION":15.27586939,"ECCENTRICITY":0.00023655,"INCLINATION":43.0103,"RA_OF_ASC_NODE":58.3789,"ARG_OF_PERICENTER":279.7151,"MEAN_ANOMALY":80.3434,"EPHEMERIS_TYPE":0,"CLASSIFICATION_TYPE":"U","NORAD_CAT_ID":59685,"ELEMENT_SET_NO":999,"REV_AT_EPOCH":10415,"BSTAR":1.0263909e-5,"MEAN_MOTION_DOT":2.0e-7,"MEAN_MOTION_DDOT":0},{"OBJECT_NAME":"TRANSPORTER-12 OBJECT AZ","OBJECT_ID":"2025-009AZ","EPOCH":"2026-03-09T17:02:46.667040","MEAN_MOTION":15.30349724,"ECCENTRICITY":9.87e-5,"INCLINATION":97.3981,"RA_OF_ASC_NODE":151.9913,"ARG_OF_PERICENTER":45.3581,"MEAN_ANOMALY":314.774,"EPHEMERIS_TYPE":0,"CLASSIFICATION_TYPE":"U","NORAD_CAT_ID":62656,"ELEMENT_SET_NO":999,"REV_AT_EPOCH":6379,"BSTAR":0.00054902545,"MEAN_MOTION_DOT":0.00016057,"MEAN_MOTION_DDOT":0}]
